start=new Date('2021-09-22T00:00:00.000Z').valueOf();
sats=[{"OBJECT_NAME":"STARLINK-1517","INCLINATION":"53.0550","ELEMENT_SET_NO":"999","EPHEMERIS_TYPE":"0","OBJECT_TYPE":"PAYLOAD","GP_ID":"185187144","MEAN_MOTION":"15.06394987","FILE":"3122258","ARG_OF_PERICENTER":"104.2190","MEAN_MOTION_DDOT":"0.0000000000000","MEAN_MOTION_DOT":"-0.00000447","REF_FRAME":"TEME","EPOCH":"2021-09-21T20:15:50.950080","ECCENTRICITY":"0.00009080","LAUNCH_DATE":"2020-06-13","CENTER_NAME":"EARTH","MEAN_ELEMENT_THEORY":"SGP4","SITE":"AFETR","PERIOD":"95.592","RCS_SIZE":"LARGE","APOAPSIS":"547.858","REV_AT_EPOCH":"7110","TLE_LINE2":"2 45787  53.0550 313.2833 0000908 104.2190 255.8899 15.06394987 71105","BSTAR":"-0.00001115700000","OBJECT_ID":"2020-038BK","COUNTRY_CODE":"US","RA_OF_ASC_NODE":"313.2833","NORAD_CAT_ID":"45787","CLASSIFICATION_TYPE":"U","MEAN_ANOMALY":"255.8899","SEMIMAJOR_AXIS":"6925.364","TIME_SYSTEM":"UTC","PERIAPSIS":"546.600","DECAY_DATE":null,"TLE_LINE1":"1 45787U 20038BK  21264.84433970 -.00000447  00000-0 -11157-4 0  9993"},{"BSTAR":"0.00009298800000","TLE_LINE2":"2 46027  53.0548 244.0034 0001550  67.3812 292.7341 15.06390436 63207","OBJECT_ID":"2020-055A","COUNTRY_CODE":"US","RA_OF_ASC_NODE":"244.0034","RCS_SIZE":"LARGE","APOAPSIS":"548.316","REV_AT_EPOCH":"6320","DECAY_DATE":null,"TLE_LINE1":"1 46027U 20055A   21264.68492376  .00001103  00000-0  92988-4 0  9996","NORAD_CAT_ID":"46027","CLASSIFICATION_TYPE":"U","MEAN_ANOMALY":"292.7341","TIME_SYSTEM":"UTC","SEMIMAJOR_AXIS":"6925.378","PERIAPSIS":"546.169","GP_ID":"185188171","MEAN_MOTION":"15.06390436","FILE":"3122258","ARG_OF_PERICENTER":"67.3812","MEAN_MOTION_DDOT":"0.0000000000000","MEAN_MOTION_DOT":"0.00001103","EPOCH":"2021-09-21T16:26:17.412864","REF_FRAME":"TEME","OBJECT_NAME":"STARLINK-1522","INCLINATION":"53.0548","ELEMENT_SET_NO":"999","EPHEMERIS_TYPE":"0","OBJECT_TYPE":"PAYLOAD","MEAN_ELEMENT_THEORY":"SGP4","SITE":"AFETR","PERIOD":"95.593","ECCENTRICITY":"0.00015500","LAUNCH_DATE":"2020-08-07","CENTER_NAME":"EARTH"},{"TLE_LINE1":"1 46028U 20055B   21264.23523552 -.00000782  00000-0 -33632-4 0  9994","DECAY_DATE":null,"SEMIMAJOR_AXIS":"6925.369","TIME_SYSTEM":"UTC","PERIAPSIS":"546.468","NORAD_CAT_ID":"46028","CLASSIFICATION_TYPE":"U","MEAN_ANOMALY":"298.4844","COUNTRY_CODE":"US","RA_OF_ASC_NODE":"246.0217","BSTAR":"-0.00003363200000","TLE_LINE2":"2 46028  53.0530 246.0217 0001106  61.6256 298.4844 15.06393431 63153","OBJECT_ID":"2020-055B","REV_AT_EPOCH":"6315","RCS_SIZE":"LARGE","APOAPSIS":"548.000","PERIOD":"95.593","SITE":"AFETR","MEAN_ELEMENT_THEORY":"SGP4","CENTER_NAME":"EARTH","ECCENTRICITY":"0.00011060","LAUNCH_DATE":"2020-08-07","ARG_OF_PERICENTER":"61.6256","MEAN_MOTION_DOT":"-0.00000782","MEAN_MOTION_DDOT":"0.0000000000000","REF_FRAME":"TEME","EPOCH":"2021-09-21T05:38:44.348928","GP_ID":"185156921","MEAN_MOTION":"15.06393431","FILE":"3121847","EPHEMERIS_TYPE":"0","OBJECT_TYPE":"PAYLOAD","OBJECT_NAME":"STARLINK-1523","INCLINATION":"53.0530","ELEMENT_SET_NO":"999"},{"APOAPSIS":"548.035","RCS_SIZE":"LARGE","REV_AT_EPOCH":"6317","OBJECT_ID":"2020-055C","TLE_LINE2":"2 46029  53.0544 245.1612 0001170  74.8157 285.2961 15.06396508 63179","BSTAR":"0.00009352300000","RA_OF_ASC_NODE":"245.1612","COUNTRY_CODE":"US","MEAN_ANOMALY":"285.2961","CLASSIFICATION_TYPE":"U","NORAD_CAT_ID":"46029","PERIAPSIS":"546.414","SEMIMAJOR_AXIS":"6925.359","TIME_SYSTEM":"UTC","DECAY_DATE":null,"TLE_LINE1":"1 46029U 20055C   21264.42690827  .00001112  00000-0  93523-4 0  9997","INCLINATION":"53.0544","ELEMENT_SET_NO":"999","OBJECT_NAME":"STARLINK-1526","OBJECT_TYPE":"PAYLOAD","EPHEMERIS_TYPE":"0","FILE":"3121847","MEAN_MOTION":"15.06396508","GP_ID":"185155256","EPOCH":"2021-09-21T10:14:44.874528","REF_FRAME":"TEME","MEAN_MOTION_DDOT":"0.0000000000000","MEAN_MOTION_DOT":"0.00001112","ARG_OF_PERICENTER":"74.8157","LAUNCH_DATE":"2020-08-07","ECCENTRICITY":"0.00011700","CENTER_NAME":"EARTH","SITE":"AFETR","MEAN_ELEMENT_THEORY":"SGP4","PERIOD":"95.592"},{"NORAD_CAT_ID":"46030","CLASSIFICATION_TYPE":"U","MEAN_ANOMALY":"291.3038","SEMIMAJOR_AXIS":"6925.355","TIME_SYSTEM":"UTC","PERIAPSIS":"546.152","DECAY_DATE":null,"TLE_LINE1":"1 46030U 20055D   21264.64437795  .00001002  00000-0  86169-4 0  9992","RCS_SIZE":"LARGE","APOAPSIS":"548.288","REV_AT_EPOCH":"6316","TLE_LINE2":"2 46030  53.0528 244.1859 0001542  68.8116 291.3038 15.06397772 63162","BSTAR":"0.00008616900000","OBJECT_ID":"2020-055D","COUNTRY_CODE":"US","RA_OF_ASC_NODE":"244.1859","ECCENTRICITY":"0.00015420","LAUNCH_DATE":"2020-08-07","CENTER_NAME":"EARTH","MEAN_ELEMENT_THEORY":"SGP4","SITE":"AFETR","PERIOD":"95.592","OBJECT_NAME":"STARLINK-1534","ELEMENT_SET_NO":"999","INCLINATION":"53.0528","EPHEMERIS_TYPE":"0","OBJECT_TYPE":"PAYLOAD","GP_ID":"185187921","MEAN_MOTION":"15.06397772","FILE":"3122258","ARG_OF_PERICENTER":"68.8116","MEAN_MOTION_DDOT":"0.0000000000000","MEAN_MOTION_DOT":"0.00001002","REF_FRAME":"TEME","EPOCH":"2021-09-21T15:27:54.254880"},{"EPOCH":"2021-09-21T15:33:11.964960","REF_FRAME":"TEME","MEAN_MOTION_DDOT":"0.0000000000000","MEAN_MOTION_DOT":"-0.00000746","ARG_OF_PERICENTER":"72.9018","FILE":"3122258","MEAN_MOTION":"15.06396689","GP_ID":"185187674","OBJECT_TYPE":"PAYLOAD","EPHEMERIS_TYPE":"0","INCLINATION":"53.0536","ELEMENT_SET_NO":"999","OBJECT_NAME":"STARLINK-1544","PERIOD":"95.592","SITE":"AFETR","MEAN_ELEMENT_THEORY":"SGP4","CENTER_NAME":"EARTH","LAUNCH_DATE":"2020-08-07","ECCENTRICITY":"0.00010580","RA_OF_ASC_NODE":"244.1650","COUNTRY_CODE":"US","OBJECT_ID":"2020-055E","TLE_LINE2":"2 46031  53.0536 244.1650 0001058  72.9018 287.2087 15.06396689 63197","BSTAR":"-0.00003119800000","REV_AT_EPOCH":"6319","APOAPSIS":"547.956","RCS_SIZE":"LARGE","TLE_LINE1":"1 46031U 20055E   21264.64805515 -.00000746  00000-0 -31198-4 0  9990","DECAY_DATE":null,"PERIAPSIS":"546.491","SEMIMAJOR_AXIS":"6925.359","TIME_SYSTEM":"UTC","MEAN_ANOMALY":"287.2087","CLASSIFICATION_TYPE":"U","NORAD_CAT_ID":"46031"},{"REF_FRAME":"TEME","EPOCH":"2021-09-21T16:15:40.614624","MEAN_MOTION_DDOT":"0.0000000000000","MEAN_MOTION_DOT":"0.00000983","ARG_OF_PERICENTER":"69.1875","FILE":"3122258","MEAN_MOTION":"15.06394579","GP_ID":"185186422","OBJECT_TYPE":"PAYLOAD","EPHEMERIS_TYPE":"0","INCLINATION":"53.0527","ELEMENT_SET_NO":"999","OBJECT_NAME":"STARLINK-1555","PERIOD":"95.592","SITE":"AFETR","MEAN_ELEMENT_THEORY":"SGP4","CENTER_NAME":"EARTH","LAUNCH_DATE":"2020-08-07","ECCENTRICITY":"0.00009380","RA_OF_ASC_NODE":"244.0358","COUNTRY_CODE":"US","OBJECT_ID":"2020-055F","BSTAR":"0.00008486200000","TLE_LINE2":"2 46032  53.0527 244.0358 0000938  69.1875 290.9214 15.06394579 63219","REV_AT_EPOCH":"6321","APOAPSIS":"547.880","RCS_SIZE":"LARGE","TLE_LINE1":"1 46032U 20055F   21264.67755341  .00000983  00000-0  84862-4 0  9992","DECAY_DATE":null,"PERIAPSIS":"546.581","SEMIMAJOR_AXIS":"6925.365","TIME_SYSTEM":"UTC","MEAN_ANOMALY":"290.9214","CLASSIFICATION_TYPE":"U","NORAD_CAT_ID":"46032"},{"ARG_OF_PERICENTER":"77.7099","EPOCH":"2021-09-21T15:49:08.539968","REF_FRAME":"TEME","MEAN_MOTION_DDOT":"0.0000000000000","MEAN_MOTION_DOT":"-0.00000732","MEAN_MOTION":"15.06393748","GP_ID":"185187170","FILE":"3122258","EPHEMERIS_TYPE":"0","OBJECT_TYPE":"PAYLOAD","OBJECT_NAME":"STARLINK-1556","INCLINATION":"53.0539","ELEMENT_SET_NO":"999","PERIOD":"95.593","MEAN_ELEMENT_THEORY":"SGP4","SITE":"AFETR","CENTER_NAME":"EARTH","ECCENTRICITY":"0.00011950","LAUNCH_DATE":"2020-08-07","RA_OF_ASC_NODE":"244.1126","COUNTRY_CODE":"US","BSTAR":"-0.00003023400000","TLE_LINE2":"2 46033  53.0539 244.1126 0001195  77.7099 282.4024 15.06393748 63184","OBJECT_ID":"2020-055G","REV_AT_EPOCH":"6318","RCS_SIZE":"LARGE","APOAPSIS":"548.060","TLE_LINE1":"1 46033U 20055G   21264.65912662 -.00000732  00000-0 -30234-4 0  9990","DECAY_DATE":null,"PERIAPSIS":"546.405","SEMIMAJOR_AXIS":"6925.368","TIME_SYSTEM":"UTC","CLASSIFICATION_TYPE":"U","NORAD_CAT_ID":"46033","MEAN_ANOMALY":"282.4024"},{"EPHEMERIS_TYPE":"0","OBJECT_TYPE":"PAYLOAD","OBJECT_NAME":"STARLINK-1557","ELEMENT_SET_NO":"999","INCLINATION":"53.0541","ARG_OF_PERICENTER":"76.8992","REF_FRAME":"TEME","EPOCH":"2021-09-21T15:54:26.261280","MEAN_MOTION_DOT":"0.00000826","MEAN_MOTION_DDOT":"0.0000000000000","MEAN_MOTION":"15.06403220","GP_ID":"185187424","FILE":"3122258","CENTER_NAME":"EARTH","ECCENTRICITY":"0.00010330","LAUNCH_DATE":"2020-08-07","PERIOD":"95.592","SITE":"AFETR","MEAN_ELEMENT_THEORY":"SGP4","REV_AT_EPOCH":"6318","RCS_SIZE":"LARGE","APOAPSIS":"547.919","RA_OF_ASC_NODE":"244.1056","COUNTRY_CODE":"US","TLE_LINE2":"2 46034  53.0541 244.1056 0001033  76.8992 283.2112 15.06403220 63187","BSTAR":"0.00007430600000","OBJECT_ID":"2020-055H","PERIAPSIS":"546.488","TIME_SYSTEM":"UTC","SEMIMAJOR_AXIS":"6925.339","CLASSIFICATION_TYPE":"U","NORAD_CAT_ID":"46034","MEAN_ANOMALY":"283.2112","TLE_LINE1":"1 46034U 20055H   21264.66280395  .00000826  00000-0  74306-4 0  9993","DECAY_DATE":null},{"PERIOD":"95.592","SITE":"AFETR","MEAN_ELEMENT_THEORY":"SGP4","CENTER_NAME":"EARTH","ECCENTRICITY":"0.00012700","LAUNCH_DATE":"2020-08-07","ARG_OF_PERICENTER":"57.9573","REF_FRAME":"TEME","EPOCH":"2021-09-21T16:05:03.561504","MEAN_MOTION_DDOT":"0.0000000000000","MEAN_MOTION_DOT":"0.00000983","MEAN_MOTION":"15.06395024","GP_ID":"185188172","FILE":"3122258","EPHEMERIS_TYPE":"0","OBJECT_TYPE":"PAYLOAD","OBJECT_NAME":"STARLINK-1558","ELEMENT_SET_NO":"999","INCLINATION":"53.0530","TLE_LINE1":"1 46035U 20055J   21264.67018011  .00000983  00000-0  84900-4 0  9994","DECAY_DATE":null,"PERIAPSIS":"546.349","TIME_SYSTEM":"UTC","SEMIMAJOR_AXIS":"6925.364","CLASSIFICATION_TYPE":"U","NORAD_CAT_ID":"46035","MEAN_ANOMALY":"302.1539","RA_OF_ASC_NODE":"244.0685","COUNTRY_CODE":"US","TLE_LINE2":"2 46035  53.0530 244.0685 0001270  57.9573 302.1539 15.06395024 63211","BSTAR":"0.00008490000000","OBJECT_ID":"2020-055J","REV_AT_EPOCH":"6321","RCS_SIZE":"LARGE","APOAPSIS":"548.108"}];
